[{"OBJECT_NAME":"STARLINK-3190","OBJECT_ID":"2021-115AU","EPOCH":"2026-03-09T10:56:56.337504","MEAN_MOTION":15.08838372,"ECCENTRICITY":0.00013901,"INCLINATION":53.2153,"RA_OF_ASC_NODE":140.1784,"ARG_OF_PERICENTER":86.6291,"MEAN_ANOMALY":273.486,"EPHEMERIS_TYPE":0,"CLASSIFICATION_TYPE":"U","NORAD_CAT_ID":49766,"ELEMENT_SET_NO":999,"REV_AT_EPOCH":23564,"BSTAR":-5.2807671e-5,"MEAN_MOTION_DOT":-1.128e-5,"MEAN_MOTION_DDOT":0},{"OBJECT_NAME":"SCOUT X-4 R\/B","OBJECT_ID":"1964-076C","EPOCH":"2026-03-09T21:31:37.688736","MEAN_MOTION":12.82292935,"ECCENTRICITY":0.10503796,"INCLINATION":81.3341,"RA_OF_ASC_NODE":228.4824,"ARG_OF_PERICENTER":226.0934,"MEAN_ANOMALY":124.8691,"EPHEMERIS_TYPE":0,"CLASSIFICATION_TYPE":"U","NORAD_CAT_ID":933,"ELEMENT_SET_NO":999,"REV_AT_EPOCH":82385,"BSTAR":0.00066284647,"MEAN_MOTION_DOT":1.978e-5,"MEAN_MOTION_DDOT":0}]
